[
  {
    "name": "ONEWEB-0590",
    "noradId": "54656",
    "line1": "1 54656U 22166Q   26203.49643660  .00000044  00000+0  74292-4 0  9999",
    "line2": "2 54656  87.9237 236.9460 0002122  82.8705 277.2671 13.21826623176191"
  },
  {
    "name": "ONEWEB-0591",
    "noradId": "54657",
    "line1": "1 54657U 22166R   26203.81113634  .00000069  00000+0  13642-3 0  9997",
    "line2": "2 54657  87.9227 236.8950 0002016  93.1904 266.9461 13.21824334176269"
  },
  {
    "name": "ONEWEB-0592",
    "noradId": "54658",
    "line1": "1 54658U 22166S   26203.51172626  .00000069  00000+0  13667-3 0  9998",
    "line2": "2 54658  87.9236 236.9361 0002038  95.9759 264.1607 13.21825207176104"
  },
  {
    "name": "ONEWEB-0593",
    "noradId": "54659",
    "line1": "1 54659U 22166T   26203.53359043 -.00000005  00000+0 -43093-4 0  9990",
    "line2": "2 54659  87.9226 236.9406 0001922  98.6655 261.4696 13.21826288176210"
  },
  {
    "name": "ONEWEB-0594",
    "noradId": "54660",
    "line1": "1 54660U 22166U   26203.85656596  .00000132  00000+0  28777-3 0  9990",
    "line2": "2 54660  87.9228 236.8922 0002161  97.6134 262.5246 13.21824511176279"
  },
  {
    "name": "ONEWEB-0595",
    "noradId": "54661",
    "line1": "1 54661U 22166V   26203.15175317 -.00000026  00000+0 -95185-4 0  9993",
    "line2": "2 54661  87.9237 237.0162 0002290  93.8042 266.3354 13.21825595176150"
  },
  {
    "name": "ONEWEB-0596",
    "noradId": "54662",
    "line1": "1 54662U 22166W   26203.50499617  .00000057  00000+0  10625-3 0  9992",
    "line2": "2 54662  87.9230 236.9551 0002142  94.8186 265.3192 13.21824342176204"
  },
  {
    "name": "ONEWEB-0597",
    "noradId": "54663",
    "line1": "1 54663U 22166X   26203.56218960  .00000033  00000+0  49280-4 0  9993",
    "line2": "2 54663  87.9228 236.9459 0001898  94.5462 265.5888 13.21824514176216"
  },
  {
    "name": "ONEWEB-0600",
    "noradId": "54664",
    "line1": "1 54664U 22166Y   26203.54369407 -.00000044  00000+0 -13898-3 0  9994",
    "line2": "2 54664  87.9229 236.9412 0002002 100.6544 259.4816 13.21825755176182"
  },
  {
    "name": "ONEWEB-0601",
    "noradId": "54665",
    "line1": "1 54665U 22166Z   26203.83806247  .00000045  00000+0  77356-4 0  9994",
    "line2": "2 54665  87.9226 236.8985 0001756  95.8898 264.2437 13.21825391176411"
  },
  {
    "name": "ONEWEB-0602",
    "noradId": "54666",
    "line1": "1 54666U 22166AA  26203.80357722  .00000057  00000+0  10662-3 0  9990",
    "line2": "2 54666  87.9226 236.9110 0002005 101.4867 258.6492 13.21824374176251"
  },
  {
    "name": "ONEWEB-0603",
    "noradId": "54667",
    "line1": "1 54667U 22166AB  26203.80946143  .00000041  00000+0  67062-4 0  9992",
    "line2": "2 54667  87.9237 236.8707 0002015  96.4231 263.7133 13.21824147176183"
  },
  {
    "name": "ONEWEB-0604",
    "noradId": "54668",
    "line1": "1 54668U 22166AC  26203.79768540  .00000033  00000+0  47727-4 0  9991",
    "line2": "2 54668  87.9238 236.8888 0002124  95.8086 264.3291 13.21824487176142"
  },
  {
    "name": "ONEWEB-0605",
    "noradId": "54669",
    "line1": "1 54669U 22166AD  26203.10968879  .00000023  00000+0  23806-4 0  9995",
    "line2": "2 54669  87.9226 237.0356 0001701  79.9841 280.1485 13.21824507176127"
  },
  {
    "name": "ONEWEB-0606",
    "noradId": "54670",
    "line1": "1 54670U 22166AE  26203.81282256  .00000083  00000+0  17005-3 0  9992",
    "line2": "2 54670  87.9228 236.9085 0002195  97.7154 262.4229 13.21825699176279"
  },
  {
    "name": "ONEWEB-0607",
    "noradId": "54671",
    "line1": "1 54671U 22166AF  26203.32501336 -.00000068  00000+0 -19564-3 0  9999",
    "line2": "2 54671  87.9236 236.9793 0001929  97.0269 263.1085 13.21825862176189"
  },
  {
    "name": "ONEWEB-0608",
    "noradId": "54672",
    "line1": "1 54672U 22166AG  26203.33172867  .00000029  00000+0  37589-4 0  9997",
    "line2": "2 54672  87.9241 236.9756 0001532  88.2580 271.8730 13.21824365176194"
  },
  {
    "name": "ONEWEB-0610",
    "noradId": "54673",
    "line1": "1 54673U 22166AH  26203.53864520  .00000018  00000+0  10963-4 0  9999",
    "line2": "2 54673  87.9225 236.9445 0001436  98.7647 261.3650 13.21825880176126"
  },
  {
    "name": "ONEWEB-0611",
    "noradId": "54674",
    "line1": "1 54674U 22166AJ  26203.15341188 -.00000012  00000+0 -60873-4 0  9999",
    "line2": "2 54674  87.9228 237.0174 0002216  96.9422 263.1964 13.21824308176064"
  },
  {
    "name": "ONEWEB-0612",
    "noradId": "54675",
    "line1": "1 54675U 22166AK  26203.54536189 -.00000033  00000+0 -11097-3 0  9996",
    "line2": "2 54675  87.9237 236.9384 0001901  94.2930 265.8422 13.21826536176109"
  },
  {
    "name": "ONEWEB-0615",
    "noradId": "54676",
    "line1": "1 54676U 22166AL  26203.82796566  .00000064  00000+0  12256-3 0  9995",
    "line2": "2 54676  87.9226 236.8939 0002288  98.7225 261.4168 13.21823801176154"
  },
  {
    "name": "ONEWEB-0655",
    "noradId": "54677",
    "line1": "1 54677U 22166AM  26203.12315029  .00000047  00000+0  82953-4 0  9993",
    "line2": "2 54677  87.9229 237.0351 0001962 100.9891 259.1464 13.21823985176057"
  },
  {
    "name": "ONEWEB-0659",
    "noradId": "54678",
    "line1": "1 54678U 22166AN  26203.51845525  .00000143  00000+0  31385-3 0  9995",
    "line2": "2 54678  87.9227 236.9557 0002018  93.0113 267.1252 13.21824907176198"
  },
  {
    "name": "ONEWEB-0685",
    "noradId": "54679",
    "line1": "1 54679U 22166AP  26203.83335648  .00020448  00000+0  48726-1 0  9996",
    "line2": "2 54679  87.9229 236.8839 0004288  85.2119 340.3119 13.22703159  5196"
  },
  {
    "name": "ONEWEB-0712",
    "noradId": "54680",
    "line1": "1 54680U 22166AQ  26203.47458396 -.00000209  00000+0 -58019-3 0  9997",
    "line2": "2 54680  87.9078 221.7653 0001949 106.5213 253.6132 13.16594449176700"
  },
  {
    "name": "ONEWEB-0714",
    "noradId": "54681",
    "line1": "1 54681U 22166AR  26203.82629328  .00000042  00000+0  69161-4 0  9996",
    "line2": "2 54681  87.9225 236.8841 0002137 103.4114 256.7258 13.21825548176242"
  },
  {
    "name": "ONEWEB-0532",
    "noradId": "55140",
    "line1": "1 55140U 23004A   26203.87438003  .00000049  00000+0  92699-4 0  9991",
    "line2": "2 55140  87.9155 358.7653 0001819  84.1690 275.9649 13.17648823172281"
  },
  {
    "name": "ONEWEB-0533",
    "noradId": "55141",
    "line1": "1 55141U 23004B   26203.83145803  .00000334  00000+0  89214-3 0  9996",
    "line2": "2 55141  87.8974 343.5843 0001651  99.0045 261.1271 13.12443226172739"
  },
  {
    "name": "ONEWEB-0541",
    "noradId": "55142",
    "line1": "1 55142U 23004C   26203.43140635 -.00000431  00000+0 -12519-2 0  9994",
    "line2": "2 55142  87.8897  14.0428 0001960  88.5318 271.6034 13.11417664170560"
  },
  {
    "name": "ONEWEB-0543",
    "noradId": "55143",
    "line1": "1 55143U 23004D   26203.29468548  .00000077  00000+0  16324-3 0  9998",
    "line2": "2 55143  87.9194 328.4876 0001967 105.7643 254.3706 13.18687334174323"
  },
  {
    "name": "ONEWEB-0544",
    "noradId": "55144",
    "line1": "1 55144U 23004E   26203.74320309 -.00000006  00000+0 -49185-4 0  9997",
    "line2": "2 55144  87.9196 328.3982 0002104 101.4541 258.6828 13.18684780174387"
  },
  {
    "name": "ONEWEB-0560",
    "noradId": "55145",
    "line1": "1 55145U 23004F   26203.73646501 -.00000012  00000+0 -62611-4 0  9998",
    "line2": "2 55145  87.9194 328.3890 0002128 103.5176 256.6194 13.18686216174398"
  },
  {
    "name": "ONEWEB-0565",
    "noradId": "55146",
    "line1": "1 55146U 23004G   26203.35033775  .00000022  00000+0  23679-4 0  9990",
    "line2": "2 55146  87.9185 328.4900 0002222  90.8514 269.2873 13.18685241174336"
  },
  {
    "name": "ONEWEB-0567",
    "noradId": "55147",
    "line1": "1 55147U 23004H   26203.79884395  .00000008  00000+0 -13625-4 0  9996",
    "line2": "2 55147  87.9194 328.3884 0002244  96.5910 263.5478 13.18684498174391"
  },
  {
    "name": "ONEWEB-0569",
    "noradId": "55148",
    "line1": "1 55148U 23004J   26203.73542618 -.00000061  00000+0 -20130-3 0  9998",
    "line2": "2 55148  87.8990 313.1493 0002800 106.1511 253.9927 13.13471016174843"
  },
  {
    "name": "ONEWEB-0570",
    "noradId": "55149",
    "line1": "1 55149U 23004K   26203.33515795  .00000059  00000+0  11779-3 0  9995",
    "line2": "2 55149  87.9194 328.4779 0001892  85.6944 274.4405 13.18685201174328"
  },
  {
    "name": "ONEWEB-0571",
    "noradId": "55150",
    "line1": "1 55150U 23004L   26203.78368462 -.00000022  00000+0 -89263-4 0  9999",
    "line2": "2 55150  87.9193 328.3884 0003142  93.6372 266.5120 13.18685709174395"
  },
  {
    "name": "ONEWEB-0572",
    "noradId": "55151",
    "line1": "1 55151U 23004M   26203.90558940  .00000108  00000+0  24624-3 0  9998",
    "line2": "2 55151  87.9157 358.7608 0001938  91.0262 269.1091 13.17648927172189"
  },
  {
    "name": "ONEWEB-0573",
    "noradId": "55152",
    "line1": "1 55152U 23004N   26203.77692756 -.00000001  00000+0 -36486-4 0  9992",
    "line2": "2 55152  87.9194 328.3916 0002712  90.5270 269.6173 13.18684018174382"
  },
  {
    "name": "ONEWEB-0588",
    "noradId": "55153",
    "line1": "1 55153U 23004P   26203.77018366 -.00000024  00000+0 -92576-4 0  9999",
    "line2": "2 55153  87.9193 328.3925 0001984  84.1765 275.9593 13.18686449174386"
  },
  {
    "name": "ONEWEB-0598",
    "noradId": "55154",
    "line1": "1 55154U 23004Q   26203.86714982 -.00000019  00000+0 -88332-4 0  9996",
    "line2": "2 55154  87.8889  13.9637 0002528  94.5935 265.5482 13.11415605170570"
  },
  {
    "name": "ONEWEB-0599",
    "noradId": "55155",
    "line1": "1 55155U 23004R   26203.86677328  .00000080  00000+0  17203-3 0  9993",
    "line2": "2 55155  87.9153 358.7667 0001965  99.9574 260.1779 13.17647824172186"
  },
  {
    "name": "ONEWEB-0614",
    "noradId": "55156",
    "line1": "1 55156U 23004S   26203.48057990  .00000184  00000+0  48457-3 0  9999",
    "line2": "2 55156  87.8886  14.0483 0001664  85.9075 274.2243 13.11415374170462"
  }
]